start=new Date('2023-04-27T00:00:00.000Z').valueOf();
sats=[{"MEAN_MOTION":"15.06390889","MEAN_ANOMALY":"273.9133","EPOCH":"2023-04-26T13:51:13.105728","OBJECT_ID":"2021-041Q","PERIOD":"95.593","COUNTRY_CODE":"US","CENTER_NAME":"EARTH","REF_FRAME":"TEME","MEAN_MOTION_DOT":"0.00017552","MEAN_ELEMENT_THEORY":"SGP4","ELEMENT_SET_NO":"999","CLASSIFICATION_TYPE":"U","SEMIMAJOR_AXIS":"6925.376","ARG_OF_PERICENTER":"86.2002","DECAY_DATE":null,"LAUNCH_DATE":"2021-05-15","PERIAPSIS":"546.356","SITE":"AFETR","TIME_SYSTEM":"UTC","NORAD_CAT_ID":"48567","REV_AT_EPOCH":"10708","OBJECT_TYPE":"PAYLOAD","FILE":"3894261","EPHEMERIS_TYPE":"0","ECCENTRICITY":"0.00012780","APOAPSIS":"548.127","OBJECT_NAME":"STARLINK-2215","TLE_LINE1":"1 48567U 21041Q   23116.57723502  .00017552  00000-0  11946-2 0  9995","RCS_SIZE":"LARGE","GP_ID":"230799019","MEAN_MOTION_DDOT":"0.0000000000000","BSTAR":"0.00119460000000","TLE_LINE2":"2 48567  53.0525 166.7713 0001278  86.2002 273.9133 15.06390889107082","INCLINATION":"53.0525","RA_OF_ASC_NODE":"166.7713"},{"CENTER_NAME":"EARTH","PERIOD":"95.594","COUNTRY_CODE":"US","REF_FRAME":"TEME","MEAN_MOTION_DOT":"0.00011848","EPOCH":"2023-04-26T14:08:30.619392","MEAN_MOTION":"15.06365398","MEAN_ANOMALY":"292.7659","OBJECT_ID":"2021-041R","PERIAPSIS":"546.184","SITE":"AFETR","LAUNCH_DATE":"2021-05-15","TIME_SYSTEM":"UTC","ELEMENT_SET_NO":"999","MEAN_ELEMENT_THEORY":"SGP4","SEMIMAJOR_AXIS":"6925.455","DECAY_DATE":null,"ARG_OF_PERICENTER":"67.3503","CLASSIFICATION_TYPE":"U","EPHEMERIS_TYPE":"0","ECCENTRICITY":"0.00016400","APOAPSIS":"548.455","FILE":"3894261","OBJECT_TYPE":"PAYLOAD","TLE_LINE1":"1 48568U 21041R   23116.58924328  .00011848  00000-0  81371-3 0  9998","OBJECT_NAME":"STARLINK-2217","NORAD_CAT_ID":"48568","REV_AT_EPOCH":"10722","RA_OF_ASC_NODE":"156.7237","TLE_LINE2":"2 48568  53.0517 156.7237 0001640  67.3503 292.7659 15.06365398107228","INCLINATION":"53.0517","MEAN_MOTION_DDOT":"0.0000000000000","RCS_SIZE":"LARGE","GP_ID":"230799270","BSTAR":"0.00081371000000"},{"CENTER_NAME":"EARTH","PERIOD":"95.595","COUNTRY_CODE":"US","MEAN_MOTION_DOT":"0.00009871","REF_FRAME":"TEME","EPOCH":"2023-04-26T19:32:16.253664","MEAN_ANOMALY":"290.3572","MEAN_MOTION":"15.06362512","OBJECT_ID":"2021-041S","SITE":"AFETR","PERIAPSIS":"546.341","LAUNCH_DATE":"2021-05-15","TIME_SYSTEM":"UTC","ELEMENT_SET_NO":"999","MEAN_ELEMENT_THEORY":"SGP4","ARG_OF_PERICENTER":"69.7570","DECAY_DATE":null,"SEMIMAJOR_AXIS":"6925.463","CLASSIFICATION_TYPE":"U","APOAPSIS":"548.316","ECCENTRICITY":"0.00014260","EPHEMERIS_TYPE":"0","FILE":"3894261","OBJECT_TYPE":"PAYLOAD","TLE_LINE1":"1 48569U 21041S   23116.81407701  .00009871  00000-0  68134-3 0  9991","OBJECT_NAME":"STARLINK-2219","REV_AT_EPOCH":"10726","NORAD_CAT_ID":"48569","RA_OF_ASC_NODE":"155.7139","INCLINATION":"53.0522","TLE_LINE2":"2 48569  53.0522 155.7139 0001426  69.7570 290.3572 15.06362512107264","MEAN_MOTION_DDOT":"0.0000000000000","GP_ID":"230798018","RCS_SIZE":"LARGE","BSTAR":"0.00068134000000"},{"EPHEMERIS_TYPE":"0","ECCENTRICITY":"0.00014200","APOAPSIS":"548.232","FILE":"3894261","OBJECT_TYPE":"PAYLOAD","TLE_LINE1":"1 48570U 21041T   23116.86844629  .00017560  00000-0  11952-2 0  9991","OBJECT_NAME":"STARLINK-2220","NORAD_CAT_ID":"48570","REV_AT_EPOCH":"10712","RA_OF_ASC_NODE":"165.4659","TLE_LINE2":"2 48570  53.0524 165.4659 0001420  66.9456 293.1683 15.06388507107120","INCLINATION":"53.0524","MEAN_MOTION_DDOT":"0.0000000000000","RCS_SIZE":"LARGE","GP_ID":"230798268","BSTAR":"0.00119520000000","CENTER_NAME":"EARTH","PERIOD":"95.593","COUNTRY_CODE":"US","REF_FRAME":"TEME","MEAN_MOTION_DOT":"0.00017560","EPOCH":"2023-04-26T20:50:33.759456","MEAN_MOTION":"15.06388507","MEAN_ANOMALY":"293.1683","OBJECT_ID":"2021-041T","PERIAPSIS":"546.265","SITE":"AFETR","LAUNCH_DATE":"2021-05-15","TIME_SYSTEM":"UTC","ELEMENT_SET_NO":"999","MEAN_ELEMENT_THEORY":"SGP4","SEMIMAJOR_AXIS":"6925.384","DECAY_DATE":null,"ARG_OF_PERICENTER":"66.9456","CLASSIFICATION_TYPE":"U"},{"MEAN_MOTION_DDOT":"0.0000000000000","GP_ID":"230798520","RCS_SIZE":"LARGE","BSTAR":"0.00093920000000","RA_OF_ASC_NODE":"166.6245","INCLINATION":"53.0527","TLE_LINE2":"2 48571  53.0527 166.6245 0001504  81.3325 278.7834 15.06393246107096","REV_AT_EPOCH":"10709","NORAD_CAT_ID":"48571","APOAPSIS":"548.276","ECCENTRICITY":"0.00015040","EPHEMERIS_TYPE":"0","FILE":"3894261","OBJECT_TYPE":"PAYLOAD","TLE_LINE1":"1 48571U 21041U   23116.61042865  .00013733  00000-0  93920-3 0  9991","OBJECT_NAME":"STARLINK-2221","ELEMENT_SET_NO":"999","MEAN_ELEMENT_THEORY":"SGP4","ARG_OF_PERICENTER":"81.3325","DECAY_DATE":null,"SEMIMAJOR_AXIS":"6925.369","CLASSIFICATION_TYPE":"U","SITE":"AFETR","PERIAPSIS":"546.193","LAUNCH_DATE":"2021-05-15","TIME_SYSTEM":"UTC","EPOCH":"2023-04-26T14:39:01.035360","MEAN_ANOMALY":"278.7834","MEAN_MOTION":"15.06393246","OBJECT_ID":"2021-041U","CENTER_NAME":"EARTH","COUNTRY_CODE":"US","PERIOD":"95.593","MEAN_MOTION_DOT":"0.00013733","REF_FRAME":"TEME"},{"NORAD_CAT_ID":"48572","REV_AT_EPOCH":"10713","OBJECT_NAME":"STARLINK-2222","TLE_LINE1":"1 48572U 21041V   23116.87214148  .00017010  00000-0  11588-2 0  9996","FILE":"3894261","OBJECT_TYPE":"PAYLOAD","EPHEMERIS_TYPE":"0","APOAPSIS":"548.336","ECCENTRICITY":"0.00015220","BSTAR":"0.00115880000000","RCS_SIZE":"LARGE","GP_ID":"230798771","MEAN_MOTION_DDOT":"0.0000000000000","TLE_LINE2":"2 48572  53.0520 165.4562 0001522  66.0833 294.0315 15.06377556107139","INCLINATION":"53.0520","RA_OF_ASC_NODE":"165.4562","OBJECT_ID":"2021-041V","MEAN_MOTION":"15.06377556","MEAN_ANOMALY":"294.0315","EPOCH":"2023-04-26T20:55:53.023872","REF_FRAME":"TEME","MEAN_MOTION_DOT":"0.00017010","PERIOD":"95.594","COUNTRY_CODE":"US","CENTER_NAME":"EARTH","CLASSIFICATION_TYPE":"U","SEMIMAJOR_AXIS":"6925.417","DECAY_DATE":null,"ARG_OF_PERICENTER":"66.0833","MEAN_ELEMENT_THEORY":"SGP4","ELEMENT_SET_NO":"999","TIME_SYSTEM":"UTC","LAUNCH_DATE":"2021-05-15","PERIAPSIS":"546.228","SITE":"AFETR"},{"NORAD_CAT_ID":"48573","REV_AT_EPOCH":"10725","OBJECT_TYPE":"PAYLOAD","FILE":"3894261","EPHEMERIS_TYPE":"0","ECCENTRICITY":"0.00012150","APOAPSIS":"548.158","OBJECT_NAME":"STARLINK-2224","TLE_LINE1":"1 48573U 21041W   23116.78458914  .00011294  00000-0  77656-3 0  9995","RCS_SIZE":"LARGE","GP_ID":"230797519","MEAN_MOTION_DDOT":"0.0000000000000","BSTAR":"0.00077656000000","TLE_LINE2":"2 48573  53.0518 155.8468 0001215  85.8241 274.2887 15.06366400107259","INCLINATION":"53.0518","RA_OF_ASC_NODE":"155.8468","MEAN_MOTION":"15.06366400","MEAN_ANOMALY":"274.2887","EPOCH":"2023-04-26T18:49:48.501696","OBJECT_ID":"2021-041W","PERIOD":"95.594","COUNTRY_CODE":"US","CENTER_NAME":"EARTH","REF_FRAME":"TEME","MEAN_MOTION_DOT":"0.00011294","MEAN_ELEMENT_THEORY":"SGP4","ELEMENT_SET_NO":"999","CLASSIFICATION_TYPE":"U","SEMIMAJOR_AXIS":"6925.452","ARG_OF_PERICENTER":"85.8241","DECAY_DATE":null,"LAUNCH_DATE":"2021-05-15","PERIAPSIS":"546.475","SITE":"AFETR","TIME_SYSTEM":"UTC"},{"NORAD_CAT_ID":"48574","REV_AT_EPOCH":"10767","FILE":"3894261","OBJECT_TYPE":"PAYLOAD","EPHEMERIS_TYPE":"0","ECCENTRICITY":"0.00015420","APOAPSIS":"548.351","OBJECT_NAME":"STARLINK-2225","TLE_LINE1":"1 48574U 21041X   23116.75418778 -.00001765  00000-0 -99662-4 0  9993","RCS_SIZE":"LARGE","GP_ID":"230797769","MEAN_MOTION_DDOT":"0.0000000000000","BSTAR":"-0.00009966200000","TLE_LINE2":"2 48574  53.0525 126.0666 0001542 103.5133 256.6028 15.06377296107671","INCLINATION":"53.0525","RA_OF_ASC_NODE":"126.0666","MEAN_MOTION":"15.06377296","MEAN_ANOMALY":"256.6028","EPOCH":"2023-04-26T18:06:01.824192","OBJECT_ID":"2021-041X","COUNTRY_CODE":"US","PERIOD":"95.594","CENTER_NAME":"EARTH","REF_FRAME":"TEME","MEAN_MOTION_DOT":"-0.00001765","MEAN_ELEMENT_THEORY":"SGP4","ELEMENT_SET_NO":"999","CLASSIFICATION_TYPE":"U","SEMIMAJOR_AXIS":"6925.418","DECAY_DATE":null,"ARG_OF_PERICENTER":"103.5133","LAUNCH_DATE":"2021-05-15","PERIAPSIS":"546.215","SITE":"AFETR","TIME_SYSTEM":"UTC"},{"OBJECT_ID":"2021-041Y","EPOCH":"2023-04-26T16:53:05.232192","MEAN_MOTION":"15.06374178","MEAN_ANOMALY":"278.8929","REF_FRAME":"TEME","MEAN_MOTION_DOT":"-0.00000252","CENTER_NAME":"EARTH","PERIOD":"95.594","COUNTRY_CODE":"US","SEMIMAJOR_AXIS":"6925.428","ARG_OF_PERICENTER":"81.2232","DECAY_DATE":null,"CLASSIFICATION_TYPE":"U","ELEMENT_SET_NO":"999","MEAN_ELEMENT_THEORY":"SGP4","TIME_SYSTEM":"UTC","PERIAPSIS":"546.237","SITE":"AFETR","LAUNCH_DATE":"2021-05-15","NORAD_CAT_ID":"48575","REV_AT_EPOCH":"10781","TLE_LINE1":"1 48575U 21041Y   23116.70353278 -.00000252  00000-0  20017-5 0  9990","OBJECT_NAME":"STARLINK-2227","EPHEMERIS_TYPE":"0","ECCENTRICITY":"0.00015240","APOAPSIS":"548.348","FILE":"3894261","OBJECT_TYPE":"PAYLOAD","BSTAR":"0.00000200170000","MEAN_MOTION_DDOT":"0.0000000000000","RCS_SIZE":"LARGE","GP_ID":"230799020","RA_OF_ASC_NODE":"116.5272","TLE_LINE2":"2 48575  53.0542 116.5272 0001524  81.2232 278.8929 15.06374178107818","INCLINATION":"53.0542"},{"APOAPSIS":"548.442","ECCENTRICITY":"0.00016600","EPHEMERIS_TYPE":"0","FILE":"3894261","OBJECT_TYPE":"PAYLOAD","TLE_LINE1":"1 48576U 21041Z   23116.77029588  .00008757  00000-0  60644-3 0  9997","OBJECT_NAME":"STARLINK-2228","REV_AT_EPOCH":"10761","NORAD_CAT_ID":"48576","RA_OF_ASC_NODE":"130.9080","INCLINATION":"53.0523","TLE_LINE2":"2 48576  53.0523 130.9080 0001660  72.9825 287.1346 15.06374416107610","MEAN_MOTION_DDOT":"0.0000000000000","GP_ID":"230799271","RCS_SIZE":"LARGE","BSTAR":"0.00060644000000","CENTER_NAME":"EARTH","PERIOD":"95.594","COUNTRY_CODE":"US","MEAN_MOTION_DOT":"0.00008757","REF_FRAME":"TEME","EPOCH":"2023-04-26T18:29:13.564032","MEAN_ANOMALY":"287.1346","MEAN_MOTION":"15.06374416","OBJECT_ID":"2021-041Z","SITE":"AFETR","PERIAPSIS":"546.142","LAUNCH_DATE":"2021-05-15","TIME_SYSTEM":"UTC","ELEMENT_SET_NO":"999","MEAN_ELEMENT_THEORY":"SGP4","ARG_OF_PERICENTER":"72.9825","DECAY_DATE":null,"SEMIMAJOR_AXIS":"6925.427","CLASSIFICATION_TYPE":"U"}];
